VCC A                   
1 44428U 98067QN  19342.86552253  .00006071  00000-0  99678-4 0  9994
2 44428  51.6409 212.6591 0002474   1.2857 358.8140 15.53897881 24689
ENTRYSAT                
1 44429U 98067QP  19342.84958389  .00006822  00000-0  10975-3 0  9999
2 44429  51.6399 212.5492 0002064 352.6207   7.4753 15.54242952 24685
VCC C                   
1 44430U 98067QQ  19342.84413530  .00008599  00000-0  13517-3 0  9993
2 44430  51.6401 212.5152 0002227   6.5400 353.5620 15.54500296 23501
VCC B                   
1 44431U 98067QR  19342.03127574  .00006111  00000-0  10034-3 0  9994
2 44431  51.6405 216.8353 0002597 356.0987   3.9983 15.53885794 24494
